STARLINK-36810          
1 67898U 26035V   26078.25002315  .00015295  00000+0  10325-3 0  9990
2 67898  97.2861  11.1576 0001444  96.7761 182.2125 15.75185920  5293
STARLINK-36878          
1 67899U 26035W   26078.25899419  .00322358  00000+0  16117-2 0  9995
2 67899  97.2907  11.1773 0001167  78.4616 281.6783 15.80958608  5350
STARLINK-36361          
1 67900U 26035X   26078.25824269  .00302209  00000+0  15147-2 0  9994
2 67900  97.2904  11.1789 0001020  66.3697 293.7678 15.80956362  5352
STARLINK-36336          
1 67901U 26035Y   26078.25002315  .00022265  00000+0  14998-3 0  9990
2 67901  97.2862  11.1730 0001189 101.8398 211.1631 15.75155667  5346
STARLINK-36876          
1 67902U 26035Z   26078.25748399  .00377038  00000+0  18766-2 0  9997
2 67902  97.2886  11.1812 0000371  70.1620 289.9688 15.80916060  5356
STARLINK-36257          
1 67903U 26035AA  26078.27528396  .00193909  00000+0  12693-2 0  9999
2 67903  97.2890  11.1594 0001810 101.9885 258.1583 15.75231833  5358
STARLINK-36814          
1 67904U 26036A   26078.00001157  .00007826  00000+0  13921-3 0  9991
2 67904  43.0008 194.7425 0001556 273.2014  46.2590 15.50554942  5147
STARLINK-36729          
1 67905U 26036B   26078.25002315  .00071008  00000+0  12075-2 0  9997
2 67905  43.0004 192.6323 0001438 274.8924 263.9507 15.50525755  5184
STARLINK-36763          
1 67906U 26036C   26078.25002315  .00069641  00000+0  11843-2 0  9990
2 67906  43.0001 192.5586 0002058 286.1630 282.4740 15.50532231  5183
STARLINK-36742          
1 67907U 26036D   26078.25002315  .00071343  00000+0  12131-2 0  9994
2 67907  43.0003 192.6091 0001249 279.9143 268.1414 15.50526607  5187
STARLINK-36827          
1 67908U 26036E   26078.25002315  .00085387  00000+0  14487-2 0  9994
2 67908  43.0003 192.2963 0001824 269.2621  45.5453 15.50514754  5184
STARLINK-36822          
1 67909U 26036F   26078.25002315  .00076480  00000+0  12993-2 0  9999
2 67909  43.0001 192.5518 0001798 265.9730 305.4821 15.50522970  5182
STARLINK-36847          
1 67910U 26036G   26078.25002315  .00086697  00000+0  14682-2 0  9999
2 67910  43.0002 192.5986 0001742 312.1973 240.1453 15.50561943  5186
STARLINK-36736          
1 67911U 26036H   26078.25002315 -.01796020  00000+0 -31549-1 0  9991
2 67911  43.0001 192.0410 0001814 269.3942 149.0124 15.53040616  5186
STARLINK-36676          
1 67912U 26036J   26078.25002315  .00097688  00000+0  16579-2 0  9990
2 67912  43.0007 192.1634 0001430 245.8720 122.3541 15.50449765  5181
STARLINK-36690          
1 67913U 26036K   26078.25002315  .00087030  00000+0  14768-2 0  9999
2 67913  43.0003 192.1504 0001347 271.4956 102.1149 15.50503737  5187
