[{"OBJECT_NAME":"STARLINK-36810","OBJECT_ID":"2026-035V","EPOCH":"2026-03-19T06:00:02.000160","MEAN_MOTION":15.7518592,"ECCENTRICITY":0.00014441,"INCLINATION":97.2861,"RA_OF_ASC_NODE":11.1576,"ARG_OF_PERICENTER":96.7761,"MEAN_ANOMALY":182.2125,"EPHEMERIS_TYPE":0,"CLASSIFICATION_TYPE":"U","NORAD_CAT_ID":67898,"ELEMENT_SET_NO":999,"REV_AT_EPOCH":529,"BSTAR":0.00010324695,"MEAN_MOTION_DOT":0.00015295,"MEAN_MOTION_DDOT":0},{"OBJECT_NAME":"STARLINK-36878","OBJECT_ID":"2026-035W","EPOCH":"2026-03-19T06:12:57.098016","MEAN_MOTION":15.80958608,"ECCENTRICITY":0.00011676,"INCLINATION":97.2907,"RA_OF_ASC_NODE":11.1773,"ARG_OF_PERICENTER":78.4616,"MEAN_ANOMALY":281.6783,"EPHEMERIS_TYPE":0,"CLASSIFICATION_TYPE":"U","NORAD_CAT_ID":67899,"ELEMENT_SET_NO":999,"REV_AT_EPOCH":535,"BSTAR":0.0016117165,"MEAN_MOTION_DOT":0.00322358,"MEAN_MOTION_DDOT":0},{"OBJECT_NAME":"STARLINK-36361","OBJECT_ID":"2026-035X","EPOCH":"2026-03-19T06:11:52.168416","MEAN_MOTION":15.80956362,"ECCENTRICITY":0.00010204,"INCLINATION":97.2904,"RA_OF_ASC_NODE":11.1789,"ARG_OF_PERICENTER":66.3697,"MEAN_ANOMALY":293.7678,"EPHEMERIS_TYPE":0,"CLASSIFICATION_TYPE":"U","NORAD_CAT_ID":67900,"ELEMENT_SET_NO":999,"REV_AT_EPOCH":535,"BSTAR":0.0015147073,"MEAN_MOTION_DOT":0.00302209,"MEAN_MOTION_DDOT":0},{"OBJECT_NAME":"STARLINK-36336","OBJECT_ID":"2026-035Y","EPOCH":"2026-03-19T06:00:02.000160","MEAN_MOTION":15.75155667,"ECCENTRICITY":0.00011892,"INCLINATION":97.2862,"RA_OF_ASC_NODE":11.173,"ARG_OF_PERICENTER":101.8398,"MEAN_ANOMALY":211.1631,"EPHEMERIS_TYPE":0,"CLASSIFICATION_TYPE":"U","NORAD_CAT_ID":67901,"ELEMENT_SET_NO":999,"REV_AT_EPOCH":534,"BSTAR":0.00014997636,"MEAN_MOTION_DOT":0.00022265,"MEAN_MOTION_DDOT":0},{"OBJECT_NAME":"STARLINK-36876","OBJECT_ID":"2026-035Z","EPOCH":"2026-03-19T06:10:46.616736","MEAN_MOTION":15.8091606,"ECCENTRICITY":3.717e-5,"INCLINATION":97.2886,"RA_OF_ASC_NODE":11.1812,"ARG_OF_PERICENTER":70.162,"MEAN_ANOMALY":289.9688,"EPHEMERIS_TYPE":0,"CLASSIFICATION_TYPE":"U","NORAD_CAT_ID":67902,"ELEMENT_SET_NO":999,"REV_AT_EPOCH":535,"BSTAR":0.0018765513,"MEAN_MOTION_DOT":0.00377038,"MEAN_MOTION_DDOT":0},{"OBJECT_NAME":"STARLINK-36257","OBJECT_ID":"2026-035AA","EPOCH":"2026-03-19T06:36:24.534144","MEAN_MOTION":15.75231833,"ECCENTRICITY":0.00018108,"INCLINATION":97.289,"RA_OF_ASC_NODE":11.1594,"ARG_OF_PERICENTER":101.9885,"MEAN_ANOMALY":258.1583,"EPHEMERIS_TYPE":0,"CLASSIFICATION_TYPE":"U","NORAD_CAT_ID":67903,"ELEMENT_SET_NO":999,"REV_AT_EPOCH":535,"BSTAR":0.0012693038,"MEAN_MOTION_DOT":0.00193909,"MEAN_MOTION_DDOT":0},{"OBJECT_NAME":"STARLINK-36814","OBJECT_ID":"2026-036A","EPOCH":"2026-03-19T00:00:00.999648","MEAN_MOTION":15.50554942,"ECCENTRICITY":0.00015561,"INCLINATION":43.0008,"RA_OF_ASC_NODE":194.7425,"ARG_OF_PERICENTER":273.2014,"MEAN_ANOMALY":46.259,"EPHEMERIS_TYPE":0,"CLASSIFICATION_TYPE":"U","NORAD_CAT_ID":67904,"ELEMENT_SET_NO":999,"REV_AT_EPOCH":514,"BSTAR":0.00013921092,"MEAN_MOTION_DOT":7.826e-5,"MEAN_MOTION_DDOT":0},{"OBJECT_NAME":"STARLINK-36729","OBJECT_ID":"2026-036B","EPOCH":"2026-03-19T06:00:02.000160","MEAN_MOTION":15.50525755,"ECCENTRICITY":0.00014387,"INCLINATION":43.0004,"RA_OF_ASC_NODE":192.6323,"ARG_OF_PERICENTER":274.8924,"MEAN_ANOMALY":263.9507,"EPHEMERIS_TYPE":0,"CLASSIFICATION_TYPE":"U","NORAD_CAT_ID":67905,"ELEMENT_SET_NO":999,"REV_AT_EPOCH":518,"BSTAR":0.0012075229,"MEAN_MOTION_DOT":0.00071008,"MEAN_MOTION_DDOT":0},{"OBJECT_NAME":"STARLINK-36763","OBJECT_ID":"2026-036C","EPOCH":"2026-03-19T06:00:02.000160","MEAN_MOTION":15.50532231,"ECCENTRICITY":0.00020581,"INCLINATION":43.0001,"RA_OF_ASC_NODE":192.5586,"ARG_OF_PERICENTER":286.163,"MEAN_ANOMALY":282.474,"EPHEMERIS_TYPE":0,"CLASSIFICATION_TYPE":"U","NORAD_CAT_ID":67906,"ELEMENT_SET_NO":999,"REV_AT_EPOCH":518,"BSTAR":0.0011842859,"MEAN_MOTION_DOT":0.00069641,"MEAN_MOTION_DDOT":0},{"OBJECT_NAME":"STARLINK-36742","OBJECT_ID":"2026-036D","EPOCH":"2026-03-19T06:00:02.000160","MEAN_MOTION":15.50526607,"ECCENTRICITY":0.00012498,"INCLINATION":43.0003,"RA_OF_ASC_NODE":192.6091,"ARG_OF_PERICENTER":279.9143,"MEAN_ANOMALY":268.1414,"EPHEMERIS_TYPE":0,"CLASSIFICATION_TYPE":"U","NORAD_CAT_ID":67907,"ELEMENT_SET_NO":999,"REV_AT_EPOCH":518,"BSTAR":0.0012131144,"MEAN_MOTION_DOT":0.00071343,"MEAN_MOTION_DDOT":0},{"OBJECT_NAME":"STARLINK-36827","OBJECT_ID":"2026-036E","EPOCH":"2026-03-19T06:00:02.000160","MEAN_MOTION":15.50514754,"ECCENTRICITY":0.00018244,"INCLINATION":43.0003,"RA_OF_ASC_NODE":192.2963,"ARG_OF_PERICENTER":269.2621,"MEAN_ANOMALY":45.5453,"EPHEMERIS_TYPE":0,"CLASSIFICATION_TYPE":"U","NORAD_CAT_ID":67908,"ELEMENT_SET_NO":999,"REV_AT_EPOCH":518,"BSTAR":0.0014487432,"MEAN_MOTION_DOT":0.00085387,"MEAN_MOTION_DDOT":0},{"OBJECT_NAME":"STARLINK-36822","OBJECT_ID":"2026-036F","EPOCH":"2026-03-19T06:00:02.000160","MEAN_MOTION":15.5052297,"ECCENTRICITY":0.00017988,"INCLINATION":43.0001,"RA_OF_ASC_NODE":192.5518,"ARG_OF_PERICENTER":265.973,"MEAN_ANOMALY":305.4821,"EPHEMERIS_TYPE":0,"CLASSIFICATION_TYPE":"U","NORAD_CAT_ID":67909,"ELEMENT_SET_NO":999,"REV_AT_EPOCH":518,"BSTAR":0.0012993285,"MEAN_MOTION_DOT":0.0007648,"MEAN_MOTION_DDOT":0},{"OBJECT_NAME":"STARLINK-36847","OBJECT_ID":"2026-036G","EPOCH":"2026-03-19T06:00:02.000160","MEAN_MOTION":15.50561943,"ECCENTRICITY":0.00017422,"INCLINATION":43.0002,"RA_OF_ASC_NODE":192.5986,"ARG_OF_PERICENTER":312.1973,"MEAN_ANOMALY":240.1453,"EPHEMERIS_TYPE":0,"CLASSIFICATION_TYPE":"U","NORAD_CAT_ID":67910,"ELEMENT_SET_NO":999,"REV_AT_EPOCH":518,"BSTAR":0.0014681875,"MEAN_MOTION_DOT":0.00086697,"MEAN_MOTION_DDOT":0},{"OBJECT_NAME":"STARLINK-36736","OBJECT_ID":"2026-036H","EPOCH":"2026-03-19T06:00:02.000160","MEAN_MOTION":15.53040616,"ECCENTRICITY":0.00018144,"INCLINATION":43.0001,"RA_OF_ASC_NODE":192.041,"ARG_OF_PERICENTER":269.3942,"MEAN_ANOMALY":149.0124,"EPHEMERIS_TYPE":0,"CLASSIFICATION_TYPE":"U","NORAD_CAT_ID":67911,"ELEMENT_SET_NO":999,"REV_AT_EPOCH":518,"BSTAR":-0.031549225,"MEAN_MOTION_DOT":-0.0179602,"MEAN_MOTION_DDOT":0},{"OBJECT_NAME":"STARLINK-36676","OBJECT_ID":"2026-036J","EPOCH":"2026-03-19T06:00:02.000160","MEAN_MOTION":15.50449765,"ECCENTRICITY":0.00014305,"INCLINATION":43.0007,"RA_OF_ASC_NODE":192.1634,"ARG_OF_PERICENTER":245.872,"MEAN_ANOMALY":122.3541,"EPHEMERIS_TYPE":0,"CLASSIFICATION_TYPE":"U","NORAD_CAT_ID":67912,"ELEMENT_SET_NO":999,"REV_AT_EPOCH":518,"BSTAR":0.0016578684,"MEAN_MOTION_DOT":0.00097688,"MEAN_MOTION_DDOT":0},{"OBJECT_NAME":"STARLINK-36690","OBJECT_ID":"2026-036K","EPOCH":"2026-03-19T06:00:02.000160","MEAN_MOTION":15.50503737,"ECCENTRICITY":0.00013477,"INCLINATION":43.0003,"RA_OF_ASC_NODE":192.1504,"ARG_OF_PERICENTER":271.4956,"MEAN_ANOMALY":102.1149,"EPHEMERIS_TYPE":0,"CLASSIFICATION_TYPE":"U","NORAD_CAT_ID":67913,"ELEMENT_SET_NO":999,"REV_AT_EPOCH":518,"BSTAR":0.0014768084,"MEAN_MOTION_DOT":0.0008703,"MEAN_MOTION_DDOT":0}]
